{
  "type": "FeatureCollection",
  "features": [
    {
      "type": "Feature",
      "properties": {
        "norad_id": 34556,
        "name": "COSMOS 2251 DEB",
        "group": "cosmos-2251-debris",
        "lat": 73.89630037827487,
        "lon": -150.5584037846557,
        "alt_km": 627.4637514513051,
        "timestamp": "2025-12-18T23:35:49.457727+00:00",
        "meta_object_name": "COSMOS 2251 DEB",
        "meta_object_id": "1993-036US",
        "meta_epoch": "2025-12-18T08:51:33.899040",
        "meta_mean_motion": 14.77974575,
        "meta_eccentricity": 0.00070721,
        "meta_inclination": 74.0158,
        "meta_ra_of_asc_node": 113.7902,
        "meta_arg_of_pericenter": 174.158,
        "meta_mean_anomaly": 251.8792,
        "meta_ephemeris_type": 0,
        "meta_classification_type": "U",
        "meta_norad_cat_id": 34556,
        "meta_element_set_no": 999,
        "meta_rev_at_epoch": 88412,
        "meta_bstar": 0.0019248899,
        "meta_mean_motion_dot": 0.00013884,
        "meta_mean_motion_ddot": 0,
        "tle_line1": "1 34556U 93036US  25352.36914235  .00013884  00000+0  19249-2 0  9994",
        "tle_line2": "2 34556  74.0158 113.7902 0007072 174.1580 251.8792 14.77974575884128"
      },
      "geometry": {
        "type": "Point",
        "coordinates": [
          -150.5584037846557,
          73.89630037827487
        ]
      }
    },
    {
      "type": "Feature",
      "properties": {
        "norad_id": 34560,
        "name": "COSMOS 2251 DEB",
        "group": "cosmos-2251-debris",
        "lat": -36.214584438215695,
        "lon": -37.91355226965115,
        "alt_km": 649.7579140289581,
        "timestamp": "2025-12-18T23:35:49.457737+00:00",
        "meta_object_name": "COSMOS 2251 DEB",
        "meta_object_id": "1993-036UW",
        "meta_epoch": "2025-12-18T11:31:40.927584",
        "meta_mean_motion": 14.72283909,
        "meta_eccentricity": 0.00142662,
        "meta_inclination": 74.0157,
        "meta_ra_of_asc_node": 130.9492,
        "meta_arg_of_pericenter": 212.6967,
        "meta_mean_anomaly": 220.8488,
        "meta_ephemeris_type": 0,
        "meta_classification_type": "U",
        "meta_norad_cat_id": 34560,
        "meta_element_set_no": 999,
        "meta_rev_at_epoch": 88336,
        "meta_bstar": 0.0019064272,
        "meta_mean_motion_dot": 0.00012055,
        "meta_mean_motion_ddot": 0,
        "tle_line1": "1 34560U 93036UW  25352.48033481  .00012055  00000+0  19064-2 0  9991",
        "tle_line2": "2 34560  74.0157 130.9492 0014266 212.6967 220.8488 14.72283909883369"
      },
      "geometry": {
        "type": "Point",
        "coordinates": [
          -37.91355226965115,
          -36.214584438215695
        ]
      }
    },
    {
      "type": "Feature",
      "properties": {
        "norad_id": 34563,
        "name": "COSMOS 2251 DEB",
        "group": "cosmos-2251-debris",
        "lat": 51.38038859424989,
        "lon": -8.944179045108948,
        "alt_km": 741.1919394001852,
        "timestamp": "2025-12-18T23:35:49.457748+00:00",
        "meta_object_name": "COSMOS 2251 DEB",
        "meta_object_id": "1993-036UZ",
        "meta_epoch": "2025-12-18T13:11:57.018336",
        "meta_mean_motion": 14.46527232,
        "meta_eccentricity": 0.00138921,
        "meta_inclination": 74.037,
        "meta_ra_of_asc_node": 192.8607,
        "meta_arg_of_pericenter": 286.5021,
        "meta_mean_anomaly": 103.9202,
        "meta_ephemeris_type": 0,
        "meta_classification_type": "U",
        "meta_norad_cat_id": 34563,
        "meta_element_set_no": 999,
        "meta_rev_at_epoch": 88281,
        "meta_bstar": 0.00032672536,
        "meta_mean_motion_dot": 1.151e-05,
        "meta_mean_motion_ddot": 0,
        "tle_line1": "1 34563U 93036UZ  25352.54996549  .00001151  00000+0  32673-3 0  9991",
        "tle_line2": "2 34563  74.0370 192.8607 0013892 286.5021 103.9202 14.46527232882814"
      },
      "geometry": {
        "type": "Point",
        "coordinates": [
          -8.944179045108948,
          51.38038859424989
        ]
      }
    },
    {
      "type": "Feature",
      "properties": {
        "norad_id": 34564,
        "name": "COSMOS 2251 DEB",
        "group": "cosmos-2251-debris",
        "lat": 43.888366067471026,
        "lon": 30.47363657792178,
        "alt_km": 765.3398539660457,
        "timestamp": "2025-12-18T23:35:49.457758+00:00",
        "meta_object_name": "COSMOS 2251 DEB",
        "meta_object_id": "1993-036VA",
        "meta_epoch": "2025-12-18T02:00:44.359200",
        "meta_mean_motion": 14.40699544,
        "meta_eccentricity": 0.00192193,
        "meta_inclination": 74.0319,
        "meta_ra_of_asc_node": 228.1246,
        "meta_arg_of_pericenter": 331.2703,
        "meta_mean_anomaly": 179.7604,
        "meta_ephemeris_type": 0,
        "meta_classification_type": "U",
        "meta_norad_cat_id": 34564,
        "meta_element_set_no": 999,
        "meta_rev_at_epoch": 88083,
        "meta_bstar": 0.00020480669,
        "meta_mean_motion_dot": 6.29e-06,
        "meta_mean_motion_ddot": 0,
        "tle_line1": "1 34564U 93036VA  25352.08384675  .00000629  00000+0  20481-3 0  9995",
        "tle_line2": "2 34564  74.0319 228.1246 0019219 331.2703 179.7604 14.40699544880831"
      },
      "geometry": {
        "type": "Point",
        "coordinates": [
          30.47363657792178,
          43.888366067471026
        ]
      }
    },
    {
      "type": "Feature",
      "properties": {
        "norad_id": 34567,
        "name": "COSMOS 2251 DEB",
        "group": "cosmos-2251-debris",
        "lat": 14.720284931599437,
        "lon": -38.768215264600016,
        "alt_km": 780.5484381487167,
        "timestamp": "2025-12-18T23:35:49.457768+00:00",
        "meta_object_name": "COSMOS 2251 DEB",
        "meta_object_id": "1993-036VD",
        "meta_epoch": "2025-12-18T11:18:55.469376",
        "meta_mean_motion": 14.24022815,
        "meta_eccentricity": 0.00742952,
        "meta_inclination": 74.0405,
        "meta_ra_of_asc_node": 146.4642,
        "meta_arg_of_pericenter": 219.5202,
        "meta_mean_anomaly": 203.3703,
        "meta_ephemeris_type": 0,
        "meta_classification_type": "U",
        "meta_norad_cat_id": 34567,
        "meta_element_set_no": 999,
        "meta_rev_at_epoch": 87206,
        "meta_bstar": 0.00019599677,
        "meta_mean_motion_dot": 4.37e-06,
        "meta_mean_motion_ddot": 0,
        "tle_line1": "1 34567U 93036VD  25352.47147534  .00000437  00000+0  19600-3 0  9990",
        "tle_line2": "2 34567  74.0405 146.4642 0074295 219.5202 203.3703 14.24022815872062"
      },
      "geometry": {
        "type": "Point",
        "coordinates": [
          -38.768215264600016,
          14.720284931599437
        ]
      }
    },
    {
      "type": "Feature",
      "properties": {
        "norad_id": 34569,
        "name": "COSMOS 2251 DEB",
        "group": "cosmos-2251-debris",
        "lat": -12.219344654391072,
        "lon": -176.7182014315497,
        "alt_km": 711.5335672064493,
        "timestamp": "2025-12-18T23:35:49.457779+00:00",
        "meta_object_name": "COSMOS 2251 DEB",
        "meta_object_id": "1993-036VF",
        "meta_epoch": "2025-12-18T08:45:09.793152",
        "meta_mean_motion": 14.24766688,
        "meta_eccentricity": 0.01575553,
        "meta_inclination": 73.9892,
        "meta_ra_of_asc_node": 187.965,
        "meta_arg_of_pericenter": 15.0684,
        "meta_mean_anomaly": 41.9169,
        "meta_ephemeris_type": 0,
        "meta_classification_type": "U",
        "meta_norad_cat_id": 34569,
        "meta_element_set_no": 999,
        "meta_rev_at_epoch": 87048,
        "meta_bstar": 0.00038085934,
        "meta_mean_motion_dot": 9.83e-06,
        "meta_mean_motion_ddot": 0,
        "tle_line1": "1 34569U 93036VF  25352.36469668  .00000983  00000+0  38086-3 0  9990",
        "tle_line2": "2 34569  73.9892 187.9650 0157555  15.0684  41.9169 14.24766688870484"
      },
      "geometry": {
        "type": "Point",
        "coordinates": [
          -176.7182014315497,
          -12.219344654391072
        ]
      }
    },
    {
      "type": "Feature",
      "properties": {
        "norad_id": 34570,
        "name": "COSMOS 2251 DEB",
        "group": "cosmos-2251-debris",
        "lat": 70.29602559021421,
        "lon": -99.11244401868271,
        "alt_km": 750.8933431036485,
        "timestamp": "2025-12-18T23:35:49.457789+00:00",
        "meta_object_name": "COSMOS 2251 DEB",
        "meta_object_id": "1993-036VG",
        "meta_epoch": "2025-12-17T14:47:22.949376",
        "meta_mean_motion": 13.99827814,
        "meta_eccentricity": 0.01902686,
        "meta_inclination": 73.9566,
        "meta_ra_of_asc_node": 209.802,
        "meta_arg_of_pericenter": 91.1991,
        "meta_mean_anomaly": 301.5791,
        "meta_ephemeris_type": 0,
        "meta_classification_type": "U",
        "meta_norad_cat_id": 34570,
        "meta_element_set_no": 999,
        "meta_rev_at_epoch": 85669,
        "meta_bstar": 0.00040162603,
        "meta_mean_motion_dot": 6.66e-06,
        "meta_mean_motion_ddot": 0,
        "tle_line1": "1 34570U 93036VG  25351.61623784  .00000666  00000+0  40163-3 0  9997",
        "tle_line2": "2 34570  73.9566 209.8020 0190268  91.1991 301.5791 13.99827814856696"
      },
      "geometry": {
        "type": "Point",
        "coordinates": [
          -99.11244401868271,
          70.29602559021421
        ]
      }
    }
  ]
}